<?xml version="1.0" encoding="UTF-8"?>
<kml xmlns="http://www.opengis.net/kml/2.2" xmlns:gx="http://www.google.com/kml/ext/2.2" xmlns:kml="http://www.opengis.net/kml/2.2" xmlns:atom="http://www.w3.org/2005/Atom">
<Document id="document">
	<name>Untitled map</name>
	<gx:CascadingStyle kml:id="__managed_style_04613471103F62F3E328_highlight">
		<Style>
			<IconStyle>
				<scale>1.2</scale>
				<Icon>
					<href>https://earth.google.com/earth/document/icon?color=1976d2&amp;id=2000&amp;scale=4</href>
				</Icon>
				<hotSpot x="64" y="128" xunits="pixels" yunits="insetPixels"/>
			</IconStyle>
			<LabelStyle>
			</LabelStyle>
			<LineStyle>
				<color>ff2dc0fb</color>
				<width>6</width>
			</LineStyle>
			<PolyStyle>
				<color>40ffffff</color>
			</PolyStyle>
			<BalloonStyle>
				<displayMode>hide</displayMode>
			</BalloonStyle>
		</Style>
	</gx:CascadingStyle>
	<gx:CascadingStyle kml:id="__managed_style_04613471103F62F3E328_normal">
		<Style>
			<IconStyle>
				<Icon>
					<href>https://earth.google.com/earth/document/icon?color=1976d2&amp;id=2000&amp;scale=4</href>
				</Icon>
				<hotSpot x="64" y="128" xunits="pixels" yunits="insetPixels"/>
			</IconStyle>
			<LabelStyle>
			</LabelStyle>
			<LineStyle>
				<color>ff2dc0fb</color>
				<width>4</width>
			</LineStyle>
			<PolyStyle>
				<color>40ffffff</color>
			</PolyStyle>
			<BalloonStyle>
				<displayMode>hide</displayMode>
			</BalloonStyle>
		</Style>
	</gx:CascadingStyle>
	<StyleMap id="__managed_style_04613471103F62F3E328">
		<Pair>
			<key>normal</key>
			<styleUrl>#__managed_style_04613471103F62F3E328_normal</styleUrl>
		</Pair>
		<Pair>
			<key>highlight</key>
			<styleUrl>#__managed_style_04613471103F62F3E328_highlight</styleUrl>
		</Pair>
	</StyleMap>
	<Placemark id="038A9F41F23F62F3E316">
		<name>st_elias</name>
		<LookAt>
			<longitude>-142.9234365695079</longitude>
			<latitude>60.86457219171733</latitude>
			<altitude>905.5618082245869</altitude>
			<heading>3.044564206090475</heading>
			<tilt>0</tilt>
			<gx:fovy>35</gx:fovy>
			<range>436725.0811207294</range>
			<altitudeMode>absolute</altitudeMode>
		</LookAt>
		<styleUrl>#__managed_style_04613471103F62F3E328</styleUrl>
		<Polygon>
			<outerBoundaryIs>
				<LinearRing>
					<coordinates>
						-143.903738969847,60.00272335603999,0 -143.4191615843396,60.03785269137171,0 -142.7980360145715,60.10566074933616,0 -142.1254905926068,60.05317660606417,0 -141.4880556963113,59.92443257730732,0 -140.8002036235457,59.72844083103179,0 -140.38544912804,59.71121246823891,0 -139.8583753377422,59.53798986833727,0 -138.7518155041953,59.18772210004435,0 -138.4882480621148,59.10076204488193,0 -138.3128183441231,59.12442689681068,0 -138.184965422015,59.17684213538021,0 -138.2119377375462,59.23648843226142,0 -138.2742889746347,59.32372207531022,0 -138.262473743,59.36439092869436,0 -138.1631696165984,59.38314474124395,0 -138.0817087430192,59.40105623302399,0 -138.0705961664612,59.43907032730168,0 -137.8829530893712,59.46053155988835,0 -137.7095499765057,59.46564299689603,0 -137.5620166544365,59.44668015287638,0 -137.4615789447081,59.47917045256103,0 -137.1874672788016,59.6242828290336,0 -137.2616925889901,59.78337097301046,0 -137.3099085064852,59.95398519242401,0 -137.570970033984,60.11305337385254,0 -137.5986829171974,60.41482492573176,0 -137.7850471005887,60.64248675647646,0 -137.7128313695519,60.85795630085637,0 -138.0573400925916,60.90760387050786,0 -138.4262244969622,61.02637683161166,0 -138.6231771267958,61.19296889736312,0 -139.0498353258549,61.37240698389962,0 -139.7667115861741,61.48014007249365,0 -140.3874730466562,61.60345209664734,0 -140.8111007202185,61.64253439105584,0 -141.4200515999722,61.72170474604238,0 -141.7431058546833,61.73254346897153,0 -141.9264800010744,61.71583214767103,0 -142.0833608176223,61.64661955605465,0 -142.4225187870346,61.46642559298594,0 -142.5893530317759,61.44313155970403,0 -142.6249527450968,61.38441711536652,0 -143.1194386716004,61.16882057773294,0 -143.2686382634254,61.11151970357744,0 -143.3703553958019,61.04563634995144,0 -143.5988950634414,60.97401225373556,0 -143.8402023172126,61.02737848003991,0 -143.8753058484121,60.98771994395495,0 -144.1681583641542,60.98897036328216,0 -144.4892859461101,61.03242012787088,0 -144.5580469729459,61.00909408966857,0 -144.7322842250822,60.97945634196917,0 -144.5360350605121,60.86339455499685,0 -144.5337905795937,60.78029118345606,0 -144.6226476011432,60.71163569359008,0 -144.8195506619464,60.59990769415297,0 -144.8575872074716,60.47035730958068,0 -145.0002697400895,60.31424331995433,0 -143.903738969847,60.00272335603999,0 
					</coordinates>
				</LinearRing>
			</outerBoundaryIs>
		</Polygon>
	</Placemark>
</Document>
</kml>
